STARLINK-30252          
1 57607U 23119F   26068.04029622  .00000226  00000+0  18088-4 0  9996
2 57607  42.9989  70.2401 0001217 279.3430  80.7284 15.26747761143161
HAWK-11B                
1 62379U 24247C   26068.44730104  .00009093  00000+0  32842-3 0  9993
2 62379  45.0161 115.7610 0004690 333.0326  27.0314 15.28847070 67738
